NORAD_CAT_ID,OBJECT_NAME,OBJECT_TYPE,EPOCH,MEAN_MOTION,ECCENTRICITY,INCLINATION,RA_OF_ASC_NODE,ARG_OF_PERICENTER,MEAN_ANOMALY,BSTAR,MEAN_MOTION_DOT,MEAN_MOTION_DDOT,TLE_LINE0,TLE_LINE1,TLE_LINE2,SEMIMAJOR_AXIS,PERIOD,APOGEE,PERIGEE,DECAYED
55769.0,STARLINK-5584,PAYLOAD,2023-06-21 14:00:01,15.38209269,0.0003519,69.998,207.6012,275.139,46.9718,-0.026638,-0.00922728,0.0,0 STARLINK-5584,1 55769U 23028AE  23172.58334491 -.00922728  00000-0 -26638-1 0  9997,2 55769  69.9980 207.6012 0003519 275.1390  46.9718 15.38209269  1302,6829.542,93.615,453.81,449.003,0.0
55769.0,STARLINK-5584,PAYLOAD,2023-06-21 22:00:01,15.37500975,0.0003447,69.9983,206.7081,270.0661,97.026,-0.024507,-0.00836318,0.0,0 STARLINK-5584,1 55769U 23028AE  23172.91668981 -.00836318  00000-0 -24507-1 0  9990,2 55769  69.9983 206.7081 0003447 270.0661  97.0260 15.37500975 17927,6831.639,93.658,455.859,451.149,0.0
55769.0,STARLINK-5584,PAYLOAD,2023-06-22 06:00:00,15.36906458,0.0003404,69.9986,205.816,272.1972,138.9326,-0.028677,-0.0094964,0.0,0 STARLINK-5584,1 55769U 23028AE  23173.25001157 -.00949640  00000-0 -28677-1 0  9999,2 55769  69.9986 205.8160 0003404 272.1972 138.9326 15.36906458 17977,6833.401,93.695,457.592,452.94,0.0
55769.0,STARLINK-5584,PAYLOAD,2023-06-22 20:00:01,15.3571837,0.0003345,69.9984,204.2563,272.2021,124.2573,-0.026955,-0.00865885,0.0,0 STARLINK-5584,1 55769U 23028AE  23173.83334491 -.00865885  00000-0 -26955-1 0  9998,2 55769  69.9984 204.2563 0003345 272.2021 124.2573 15.35718370 18061,6836.925,93.767,461.077,456.503,0.0
55769.0,STARLINK-5584,PAYLOAD,2023-06-23 06:00:00,15.34939564,0.0003213,69.9988,203.1442,271.6708,267.111,-0.029943,-0.0093219,0.0,0 STARLINK-5584,1 55769U 23028AE  23174.25001157 -.00932190  00000-0 -29943-1 0  9999,2 55769  69.9988 203.1442 0003213 271.6708 267.1110 15.34939564 18128,6839.237,93.815,463.299,458.905,0.0
55769.0,STARLINK-5584,PAYLOAD,2023-06-24 14:00:01,15.32345838,0.000333,69.9987,199.5942,274.1912,63.8253,-0.032861,-0.00941377,0.0,0 STARLINK-5584,1 55769U 23028AE  23175.58334491 -.00941377  00000-0 -32861-1 0  9996,2 55769  69.9987 199.5942 0003330 274.1912  63.8253 15.32345838 18330,6846.952,93.974,471.097,466.537,0.0
55769.0,STARLINK-5584,PAYLOAD,2023-06-25 14:00:01,15.30391197,0.0003162,69.9988,196.9411,276.2707,172.9657,-0.035084,-0.00957112,0.0,0 STARLINK-5584,1 55769U 23028AE  23176.58334491 -.00957112  00000-0 -35084-1 0  9991,2 55769  69.9988 196.9411 0003162 276.2707 172.9657 15.30391197 18484,6852.781,94.094,476.813,472.479,0.0
55769.0,STARLINK-5584,PAYLOAD,2023-06-26 14:00:01,15.28435987,0.0003005,69.9987,194.2962,274.3003,279.1161,-0.037462,-0.009617,0.0,0 STARLINK-5584,1 55769U 23028AE  23177.58334491 -.00961700  00000-0 -37462-1 0  9992,2 55769  69.9987 194.2962 0003005 274.3003 279.1161 15.28435987 18639,6858.624,94.214,482.55,478.428,0.0
55769.0,STARLINK-5584,PAYLOAD,2023-06-27 02:00:01,15.27469756,0.0003226,69.9991,192.9768,269.9497,152.9127,-0.039291,-0.00977997,0.0,0 STARLINK-5584,1 55769U 23028AE  23178.08334491 -.00977997  00000-0 -39291-1 0  9995,2 55769  69.9991 192.9768 0003226 269.9497 152.9127 15.27469756 18714,6861.516,94.274,485.595,481.168,0.0
55769.0,STARLINK-5584,PAYLOAD,2023-06-27 14:00:01,15.26479536,0.0003124,69.9985,191.6592,273.2998,17.2567,-0.039892,-0.00964528,0.0,0 STARLINK-5584,1 55769U 23028AE  23178.58334491 -.00964528  00000-0 -39892-1 0  9993,2 55769  69.9985 191.6592 0003124 273.2998  17.2567 15.26479536 18794,6864.483,94.335,488.493,484.204,0.0
55769.0,STARLINK-5584,PAYLOAD,2023-06-28 06:00:00,15.25132087,0.0003236,69.9987,189.9057,272.083,79.3413,-0.038694,-0.00891963,0.0,0 STARLINK-5584,1 55769U 23028AE  23179.25001157 -.00891963  00000-0 -38694-1 0  9999,2 55769  69.9987 189.9057 0003236 272.0830  79.3413 15.25132087 18894,6868.526,94.418,492.613,488.168,0.0
55769.0,STARLINK-5584,PAYLOAD,2023-06-28 14:00:01,15.24522011,0.0003191,69.9984,189.03,275.5527,105.1032,-0.042293,-0.00964009,0.0,0 STARLINK-5584,1 55769U 23028AE  23179.58334491 -.00964009  00000-0 -42293-1 0  9997,2 55769  69.9984 189.0300 0003191 275.5527 105.1032 15.24522011 18944,6870.358,94.456,494.415,490.031,0.0
55769.0,STARLINK-5584,PAYLOAD,2023-06-29 22:00:00,15.21884562,0.0003063,69.9984,185.5366,270.0092,219.8324,-0.042595,-0.00902213,0.0,0 STARLINK-5584,1 55769U 23028AE  23180.91667824 -.00902213  00000-0 -42595-1 0  9999,2 55769  69.9984 185.5366 0003063 270.0092 219.8324 15.21884562 19141,6878.293,94.62,502.265,498.052,0.0
55769.0,STARLINK-5584,PAYLOAD,2023-07-01 06:00:00,15.19255839,0.0003037,69.9982,182.0567,272.3665,314.154,-0.045491,-0.0089284,0.0,0 STARLINK-5584,1 55769U 23028AE  23182.25001157 -.00892840  00000-0 -45491-1 0  9991,2 55769  69.9982 182.0567 0003037 272.3665 314.1540 15.19255839 19354,6886.225,94.783,510.182,505.999,0.0
55769.0,STARLINK-5584,PAYLOAD,2023-07-01 22:00:00,15.17979249,0.0003122,69.998,180.3221,266.1805,3.9604,-0.04856,-0.0091666,0.0,0 STARLINK-5584,1 55769U 23028AE  23182.91667824 -.00916660  00000-0 -48560-1 0  9990,2 55769  69.9980 180.3221 0003122 266.1805   3.9604 15.17979249 19453,6890.086,94.863,514.102,509.8,0.0
55769.0,STARLINK-5584,PAYLOAD,2023-07-02 04:00:00,15.17485342,0.0003047,69.9982,179.6725,270.7785,284.9314,-0.050232,-0.00933483,0.0,0 STARLINK-5584,1 55769U 23028AE  23183.16667824 -.00933483  00000-0 -50232-1 0  9999,2 55769  69.9982 179.6725 0003047 270.7785 284.9314 15.17485342 19487,6891.581,94.894,515.545,511.346,0.0
55769.0,STARLINK-5584,PAYLOAD,2023-07-04 06:00:02,15.13386046,0.0003127,69.9986,174.2783,273.763,124.5479,-0.053558,-0.00889042,0.0,0 STARLINK-5584,1 55769U 23028AE  23185.25002315 -.00889042  00000-0 -53558-1 0  9994,2 55769  69.9986 174.2783 0003127 273.7630 124.5479 15.13386046 19801,6904.02,95.151,528.044,523.726,0.0
55769.0,STARLINK-5584,PAYLOAD,2023-07-04 22:00:01,15.12114642,0.0003126,69.9989,172.5593,268.5787,159.2725,-0.05812,-0.00927914,0.0,0 STARLINK-5584,1 55769U 23028AE  23185.91668981 -.00927914  00000-0 -58120-1 0  9995,2 55769  69.9989 172.5593 0003126 268.5787 159.2725 15.12114642 19908,6907.889,95.231,531.914,527.595,0.0
55769.0,STARLINK-5584,PAYLOAD,2023-07-05 22:00:01,15.10164005,0.0003036,69.9995,169.9875,268.4074,197.9098,-0.062054,-0.00937629,0.0,0 STARLINK-5584,1 55769U 23028AE  23186.91668981 -.00937629  00000-0 -62054-1 0  9991,2 55769  69.9995 169.9875 0003036 268.4074 197.9098 15.10164005 20052,6913.836,95.354,537.8,533.602,0.0
55769.0,STARLINK-5584,PAYLOAD,2023-07-07 06:00:00,15.07511006,0.0002911,69.9998,166.5706,274.2632,232.3493,-0.062175,-0.00877909,0.0,0 STARLINK-5584,1 55769U 23028AE  23188.25001157 -.00877909  00000-0 -62175-1 0  9994,2 55769  69.9998 166.5706 0002911 274.2632 232.3493 15.07511006 20255,6921.946,95.522,545.826,541.796,0.0
55769.0,STARLINK-5584,PAYLOAD,2023-07-07 22:00:00,15.06258108,0.0002959,70.0001,164.8672,267.3318,254.7357,-0.070125,-0.00951019,0.0,0 STARLINK-5584,1 55769U 23028AE  23188.91667824 -.00951019  00000-0 -70125-1 0  9995,2 55769  70.0001 164.8672 0002959 267.3318 254.7357 15.06258108 20350,6925.783,95.601,549.698,545.599,0.0
55769.0,STARLINK-5584,PAYLOAD,2023-07-08 22:00:00,15.04303676,0.000296,70.0,162.3188,267.2079,272.206,-0.074314,-0.0096683,0.0,0 STARLINK-5584,1 55769U 23028AE  23189.91667824 -.00966830  00000-0 -74314-1 0  9997,2 55769  70.0000 162.3188 0002960 267.2079 272.2060 15.04303676 20512,6931.781,95.725,555.698,551.594,0.0
55769.0,STARLINK-5584,PAYLOAD,2023-07-09 14:00:01,15.02975128,0.0002871,69.9995,160.6239,272.6577,274.422,-0.075212,-0.00935154,0.0,0 STARLINK-5584,1 55769U 23028AE  23190.58334491 -.00935154  00000-0 -75212-1 0  9996,2 55769  69.9995 160.6239 0002871 272.6577 274.4220 15.02975128 20612,6935.865,95.81,559.722,555.739,0.0
55769.0,STARLINK-5584,PAYLOAD,2023-07-10 22:00:00,15.00393572,0.0002947,69.9993,157.2448,267.549,285.4357,-0.083111,-0.00974169,0.0,0 STARLINK-5584,1 55769U 23028AE  23191.91667824 -.00974169  00000-0 -83111-1 0  9999,2 55769  69.9993 157.2448 0002947 267.5490 285.4357 15.00393572 20815,6943.819,95.975,567.73,563.637,0.0
55769.0,STARLINK-5584,PAYLOAD,2023-07-11 06:00:00,14.99513189,0.0002953,69.9992,156.4019,275.8584,276.6986,-0.025164,-0.00296978,0.0,0 STARLINK-5584,1 55769U 23028AE  23192.25001157 -.00296978  00000-0 -25164-1 0  9997,2 55769  69.9992 156.4019 0002953 275.8584 276.6986 14.99513189 20862,6946.536,96.031,570.453,566.35,0.0
55769.0,STARLINK-5584,PAYLOAD,2023-07-11 14:00:01,14.99316124,0.0002783,69.9991,155.5599,272.5777,278.7463,-0.00385,-0.00046907,0.0,0 STARLINK-5584,1 55769U 23028AE  23192.58334491 -.00046907  00000-0 -38500-2 0  9997,2 55769  69.9991 155.5599 0002783 272.5777 278.7463 14.99316124 20912,6947.145,96.044,570.943,567.077,0.0
55769.0,STARLINK-5584,PAYLOAD,2023-07-12 06:00:00,14.992915,0.0002799,69.9997,153.8764,272.7363,275.8857,0.00044858,5.398e-05,0.0,0 STARLINK-5584,1 55769U 23028AE  23193.25001157  .00005398  00000-0  44858-3 0  9993,2 55769  69.9997 153.8764 0002799 272.7363 275.8857 14.99291500 21010,6947.221,96.045,571.031,567.142,0.0
55769.0,STARLINK-5584,PAYLOAD,2023-07-13 18:00:00,14.99257266,0.0002861,69.9999,150.0886,265.282,97.2557,0.0065298,0.00080637,0.0,0 STARLINK-5584,1 55769U 23028AE  23194.75001157  .00080637  00000-0  65298-2 0  9998,2 55769  69.9999 150.0886 0002861 265.2820  97.2557 14.99257266 21239,6947.327,96.048,571.18,567.204,0.0
55769.0,STARLINK-5584,PAYLOAD,2023-07-14 04:00:01,14.99305141,0.0002873,70.0001,149.0365,270.5898,180.3072,-0.0010114,-0.00012449,0.0,0 STARLINK-5584,1 55769U 23028AE  23195.16668981 -.00012449  00000-0 -10114-2 0  9993,2 55769  70.0001 149.0365 0002873 270.5898 180.3072 14.99305141 21291,6947.179,96.044,571.04,567.048,0.0
55769.0,STARLINK-5584,PAYLOAD,2023-07-14 22:00:00,14.99330891,0.0002922,70.0005,147.1427,265.4459,272.3484,-0.00056368,-6.99e-05,0.0,0 STARLINK-5584,1 55769U 23028AE  23195.91667824 -.00006990  00000-0 -56368-3 0  9997,2 55769  70.0005 147.1427 0002922 265.4459 272.3484 14.99330891 21417,6947.099,96.043,570.994,566.934,0.0
